0 ZHUHAI-1 02
1 42759U 17034B   19255.68859959  .00000198  00000-0  25656-4 0  9999
2 42759  43.0179 118.4490 0010328  68.7698  35.7755 15.09629639123837
0 NUSAT-3
1 42760U 17034C   19255.79823337  .00000269  00000-0  29650-4 0  9991
2 42760  43.0167 117.5866 0008629  88.4750 323.6083 15.10071547123869
0 NUSAT-3
1 42760U 17034C   19255.08332383  .00000180  00000-0  24271-4 0  9995
2 42760  43.0169 121.5163 0008655  83.0716  38.0852 15.10070265123753
0 ZHUHAI-1 01
1 42761U 17034D   19255.06052480  .00000085  00000-0  18681-4 0  9993
2 42761  43.0183 121.3809 0010785  65.6048  86.0105 15.09705706123731
0 ZHUHAI-1 01
1 42761U 17034D   19254.92244693 +.00000077 +00000-0 +18207-4 0  9991
2 42761 043.0180 122.1387 0010755 064.6375 055.6655 15.09705499123716
0 ZHUHAI-1 01
1 42761U 17034D   19255.71442091  .00000089  00000-0  18956-4 0  9995
2 42761  43.0184 117.7896 0010581  70.7509  38.8595 15.09706177123832
0 ZHUHAI-1 01
1 42761U 17034D   19255.83737858  .00000086  00000-0  18763-4 0  9999
2 42761  43.0184 117.1139 0010580  71.5310 347.1192 15.09706229123853
0 CHINASAT 9A
1 42763U 17035A   19255.77930134 -.00000329  00000-0  00000+0 0  9998
2 42763   0.0465 264.6889 0003005 229.7346 238.9767  1.00267494  8893
0 CHINASAT 9A
1 42763U 17035A   19253.98956334 -.00000333 +00000-0 +00000-0 0  9995
2 42763 000.0154 221.0592 0002863 269.8270 316.4616 01.00267739008873
0 CZ-3B R/B
1 42764U 17035B   19254.96248356  .00085445 -50423-6  51155-3 0  9990
2 42764  25.6703 133.6452 4380415 234.2100  76.8310  6.89489223 48423
0 UCLSAT
1 42765U 17036A   19254.10672813 +.00000887 +00000-0 +40786-4 0  9992
2 42765 097.3436 310.2825 0009873 296.9961 063.0268 15.22873611123319
0 UCLSAT
1 42765U 17036A   19255.15804656  .00000829  00000-0  38305-4 0  9990
2 42765  97.3434 311.3104 0009826 292.6850  67.3347 15.22875426123475
0 NIUSAT
1 42766U 17036B   19255.08631229  .00000657  00000-0  32476-4 0  9999
2 42766  97.3430 309.4500 0013946 282.3144  77.6530 15.21215920123216
0 NIUSAT
1 42766U 17036B   19254.69163835 +.00000663 +00000-0 +32746-4 0  9995
2 42766 097.3431 309.0652 0013949 283.8525 076.1158 15.21215311123150
0 CARTOSAT 2E
1 42767U 17036C   19254.94475137 +.00000400 +00000-0 +22217-4 0  9996
2 42767 097.4646 312.7804 0008252 303.4440 056.6008 15.19266072123093
0 CARTOSAT 2E
1 42767U 17036C   19255.20820404  .00020903  00000-0  99283-3 0  9993
2 42767  97.4613 313.0406 0007645 299.0389  60.8883 15.19230247123134
0 CARTOSAT 2E
1 42767U 17036C   19255.86688234  .00169489  00000-0  78662-2 0  9998
2 42767  97.4623 313.6920 0007806 299.0089  61.0362 15.19234063123234
0 CARTOSAT 2E
1 42767U 17036C   19255.73515085  .00002036  00000-0  10000-3 0  9994
2 42767  97.4615 313.5620 0007735 299.3869  60.6567 15.19190418123216
0 LITUANICASAT 2
1 42768U 17036D   19254.73750493 +.00001465 +00000-0 +65118-4 0  9994
2 42768 097.3474 310.5530 0013304 282.2518 077.7229 15.23018133123253
0 LITUANICASAT 2
1 42768U 17036D   19255.13171209  .00001432  00000-0  63743-4 0  9997
2 42768  97.3473 310.9388 0013313 280.7412  79.2325 15.23019219123310
0 CE-SAT 1
1 42769U 17036E   19254.95164637 +.00000454 +00000-0 +23740-4 0  9990
2 42769 097.3416 308.8994 0014645 290.3947 069.5716 15.20660342123105
0 CE-SAT 1
1 42769U 17036E   19255.74128087  .00000475  00000-0  24699-4 0  9994
2 42769  97.3416 309.6685 0014417 286.8405  73.1249 15.20661594123222
0 LEMUR 2 SHAINAJOHL
1 42771U 17036G   19254.71212012 +.00000990 +00000-0 +45969-4 0  9990
2 42771 097.3448 310.0172 0012804 283.3637 076.6171 15.22257278123161
0 LEMUR 2 XUENITERENCE
1 42772U 17036H   19254.72890888 +.00001163 +00000-0 +53213-4 0  9999
2 42772 097.3428 310.0650 0012335 282.5440 077.4416 15.22441386123170
0 LEMUR 2 XUENITERENCE
1 42772U 17036H   19255.12326525  .00001146  00000-0  52461-4 0  9991
2 42772  97.3427 310.4503 0012343 281.0011  78.9837 15.22442326123232
0 LEMUR 2 LUCYBRYCE
1 42773U 17036J   19255.13039071  .00000641  00000-0  30595-4 0  9993
2 42773  97.3467 310.9026 0012209 279.5888  80.3968 15.22506356123255
0 LEMUR 2 LUCYBRYCE
1 42773U 17036J   19254.73605097 +.00000645 +00000-0 +30767-4 0  9990
2 42773 097.3467 310.5171 0012213 281.2123 078.7740 15.22505768123197
0 LEMUR 2 KUNGFOO
1 42774U 17036K   19254.04890304 +.00001049 +00000-0 +48336-4 0  9992
2 42774 097.3449 309.5370 0012239 285.0430 074.9452 15.22408139123066
0 LEMUR 2 KUNGFOO
1 42774U 17036K   19255.10054251  .00001004  00000-0  46398-4 0  9990
2 42774  97.3447 310.5646 0012214 280.7990  79.1871 15.22410416123229
0 AALTO 1
1 42775U 17036L   19254.70577694 +.00000535 +00000-0 +26861-4 0  9998
2 42775 097.3417 309.4176 0012293 283.7949 076.1918 15.21426662123134
0 AALTO 1
1 42775U 17036L   19255.10039616  .00000528  00000-0  26512-4 0  9995
2 42775  97.3416 309.8024 0012285 282.2036  77.7824 15.21427167123191
0 URSA MAIOR
1 42776U 17036M   19254.72472225 +.00000595 +00000-0 +29403-4 0  9996
2 42776 097.3428 309.6118 0012115 283.6384 076.3503 15.21567407123146
0 COMPASS 2
1 42777U 17036N   19254.81715898 +.00001150 +00000-0 +51699-4 0  9993
2 42777 097.3469 311.0973 0010788 283.7334 076.2702 15.23070561123229
0 MAX VALIER SAT
1 42778U 17036P   19254.73082053 +.00000645 +00000-0 +31147-4 0  9999
2 42778 097.3469 310.4923 0010654 288.1416 071.8660 15.22123332123172
0 MAX VALIER SAT
1 42778U 17036P   19255.12525924  .00000640  00000-0  30891-4 0  9992
2 42778  97.3469 310.8777 0010653 286.5440  73.4626 15.22123901123230
0 LEMUR 2 LISASAURUS
1 42780U 17036R   19255.15523468  .00000654  00000-0  30763-4 0  9992
2 42780  97.3455 311.4219 0010316 289.3408  70.6713 15.22986519123280
0 LEMUR 2 LISASAURUS
1 42780U 17036R   19253.90688515 +.00000697 +00000-0 +32566-4 0  9998
2 42780 097.3457 310.2007 0010357 294.4518 065.5638 15.22984658123098
0 LEMUR 2 SAM-AMELIA
1 42781U 17036S   19254.10955154 +.00000727 +00000-0 +33629-4 0  9993
2 42781 097.3471 310.7499 0010320 293.1341 066.8808 15.23242823123135
0 LEMUR 2 SAM-AMELIA
1 42781U 17036S   19255.09492387  .00000697  00000-0  32343-4 0  9994
2 42781  97.3470 311.7143 0010282 289.0841  70.9282 15.23244366123289
0 DIAMOND RED
1 42783U 17036U   19255.10280041  .00000684  00000-0  32671-4 0  9990
2 42783  97.3434 310.7876 0010519 294.0556  65.9579 15.22311155123244
0 DIAMOND RED
1 42783U 17036U   19253.91962929 +.00000722 +00000-0 +34289-4 0  9999
2 42783 097.3435 309.6318 0010564 298.8723 061.1453 15.22309350123064
0 DIAMOND GREEN
1 42785U 17036W   19254.11563544 +.00000723 +00000-0 +34356-4 0  9990
2 42785 097.3438 309.8498 0010477 298.7801 061.2383 15.22308775123163
0 DIAMOND GREEN
1 42785U 17036W   19255.10161185  .00000692  00000-0  33020-4 0  9997
2 42785  97.3436 310.8130 0010429 294.7489  65.2662 15.22310282123239
0 DIAMOND BLUE
1 42786U 17036X   19255.16652415  .00000694  00000-0  33105-4 0  9991
2 42786  97.3436 310.8740 0010263 294.8639  65.1530 15.22310671123247
0 DIAMOND BLUE
1 42786U 17036X   19254.11481626 +.00000722 +00000-0 +34308-4 0  9997
2 42786 097.3437 309.8466 0010317 299.1709 060.8495 15.22309006123160
0 NUDTSAT
1 42787U 17036Y   19254.74505991 +.00001671 +00000-0 +72582-4 0  9999
2 42787 097.3463 311.5211 0010319 295.7144 064.3020 15.23644366123092
0 NUDTSAT
1 42787U 17036Y   19255.20478001  .00001659  00000-0  72098-4 0  9990
2 42787  97.3463 311.9713 0010272 294.2192  65.7969 15.23645761123163
0 SUCHAI
1 42788U 17036Z   19254.06300590 +.00000975 +00000-0 +44308-4 0  9994
2 42788 097.3444 310.3900 0010004 296.6629 063.3583 15.23054354123199
0 SUCHAI
1 42788U 17036Z   19255.11419931  .00000957  00000-0  43540-4 0  9998
2 42788  97.3443 311.4182 0009948 292.2845  67.7336 15.23056609123356
0 SKCUBE
1 42789U 17036AA  19254.74156482 +.00000890 +00000-0 +40838-4 0  9999
2 42789 097.3440 310.9795 0009843 294.0774 065.9433 15.22946366123213
0 VZLUSAT 1
1 42790U 17036AB  19254.73209796 +.00001170 +00000-0 +51718-4 0  9998
2 42790 097.3456 311.5098 0009357 292.7999 067.2249 15.23634685123241
0 VENTA 1
1 42791U 17036AC  19254.71501869 +.00000905 +00000-0 +41458-4 0  9998
2 42791 097.3438 311.0044 0009495 295.0148 065.0102 15.22956008123208
0 ROBUSTA 1B
1 42792U 17036AD  19254.13742547 +.00000967 +00000-0 +43883-4 0  9997
2 42792 097.3441 310.5580 0009457 297.5082 062.5193 15.23119147123145
0 ROBUSTA 1B
1 42792U 17036AD  19255.12287769  .00000932  00000-0  42401-4 0  9994
2 42792  97.3440 311.5219 0009406 293.4329  66.5918 15.23121062123291
0 DSAT
1 42794U 17036AF  19255.76988338 -.00000026  00000-0  32825-5 0  9991
2 42794  97.5322 296.6519 0125652 214.1218 145.1878 14.91130203121163
0 COSMOS 2519
1 42798U 17037A   19255.63116935  .00010488  00000-0  14307-3 0  9993
2 42798  97.8177 345.1887 0216566 247.3816 110.4382 15.34861407121792
0 COSMOS 2519
1 42798U 17037A   19254.84882525 +.00011612 +00000-0 +15828-3 0  9999
2 42798 097.8174 344.3577 0216542 250.1806 107.5969 15.34848212121675
0 SL-4 R/B
1 42800U 17037C   19254.18732804 +.00028968 +27790-5 +12413-3 0  9993
2 42800 098.0693 067.2645 0123297 027.3298 333.4379 15.74713560125555
0 SL-4 R/B
1 42800U 17037C   19255.07693402  .00031437  28288-5  13430-3 0  9990
2 42800  98.0690  68.2973 0123027  24.0346 336.6590 15.74773340125671
0 IRIDIUM 113
1 42803U 17039A   19255.15573247  .00000089  00000-0  24689-4 0  9993
2 42803  86.3931 274.2053 0002366 102.6227 257.5233 14.34217630117152
0 IRIDIUM 113
1 42803U 17039A   19255.43480658  .00000092  00000-0  25633-4 0  9991
2 42803  86.3931 274.0886 0002372 102.4994 257.6467 14.34217667117194
0 IRIDIUM 113
1 42803U 17039A   19254.73712134 +.00000089 +00000-0 +24874-4 0  9992
2 42803 086.3931 274.3804 0002354 102.6807 257.4652 14.34217562117099
